[{"OBJECT_NAME":"ONEWEB-0704","OBJECT_ID":"2024-188R","EPOCH":"2025-10-05T04:30:51.606720","MEAN_MOTION":13.10370504,"ECCENTRICITY":0.000248,"INCLINATION":87.8762,"RA_OF_ASC_NODE":87.0561,"ARG_OF_PERICENTER":106.7219,"MEAN_ANOMALY":253.4181,"EPHEMERIS_TYPE":0,"CLASSIFICATION_TYPE":"U","NORAD_CAT_ID":61609,"ELEMENT_SET_NO":999,"REV_AT_EPOCH":4989,"BSTAR":-0.0016822,"MEAN_MOTION_DOT":-5.75e-6,"MEAN_MOTION_DDOT":0},{"OBJECT_NAME":"ONEWEB-0705","OBJECT_ID":"2024-188S","EPOCH":"2025-10-05T00:58:08.564160","MEAN_MOTION":13.10359259,"ECCENTRICITY":0.0002867,"INCLINATION":87.8753,"RA_OF_ASC_NODE":87.1162,"ARG_OF_PERICENTER":88.1904,"MEAN_ANOMALY":271.9552,"EPHEMERIS_TYPE":0,"CLASSIFICATION_TYPE":"U","NORAD_CAT_ID":61610,"ELEMENT_SET_NO":999,"REV_AT_EPOCH":4204,"BSTAR":-0.0094637,"MEAN_MOTION_DOT":-3.289e-5,"MEAN_MOTION_DDOT":0},{"OBJECT_NAME":"ONEWEB-0706","OBJECT_ID":"2024-188T","EPOCH":"2025-10-05T00:36:37.171008","MEAN_MOTION":13.10370477,"ECCENTRICITY":0.0002286,"INCLINATION":87.874,"RA_OF_ASC_NODE":87.1449,"ARG_OF_PERICENTER":98.0172,"MEAN_ANOMALY":262.1215,"EPHEMERIS_TYPE":0,"CLASSIFICATION_TYPE":"U","NORAD_CAT_ID":61611,"ELEMENT_SET_NO":999,"REV_AT_EPOCH":4996,"BSTAR":-0.00058522,"MEAN_MOTION_DOT":-1.92e-6,"MEAN_MOTION_DDOT":0},{"OBJECT_NAME":"ONEWEB-0707","OBJECT_ID":"2024-188U","EPOCH":"2025-10-05T04:26:05.419680","MEAN_MOTION":13.10372232,"ECCENTRICITY":0.0002223,"INCLINATION":87.8758,"RA_OF_ASC_NODE":87.0817,"ARG_OF_PERICENTER":100.6997,"MEAN_ANOMALY":259.4381,"EPHEMERIS_TYPE":0,"CLASSIFICATION_TYPE":"U","NORAD_CAT_ID":61612,"ELEMENT_SET_NO":999,"REV_AT_EPOCH":4992,"BSTAR":-0.0010662,"MEAN_MOTION_DOT":-3.6e-6,"MEAN_MOTION_DDOT":0},{"OBJECT_NAME":"ONEWEB-0708","OBJECT_ID":"2024-188V","EPOCH":"2025-10-04T17:52:38.786304","MEAN_MOTION":13.10376401,"ECCENTRICITY":0.0002432,"INCLINATION":87.876,"RA_OF_ASC_NODE":87.2114,"ARG_OF_PERICENTER":89.993,"MEAN_ANOMALY":270.1476,"EPHEMERIS_TYPE":0,"CLASSIFICATION_TYPE":"U","NORAD_CAT_ID":61613,"ELEMENT_SET_NO":999,"REV_AT_EPOCH":4984,"BSTAR":-0.00073271,"MEAN_MOTION_DOT":-2.43e-6,"MEAN_MOTION_DDOT":0}]
